0 SL-14 DEB
1 26019U 91068AE  13282.94995848  .00000036  00000-0  18713-3 0  4227
2 26019 082.6497 256.5285 0271921 219.1576 199.1825 12.36085603  1530
0 SL-14 DEB
1 26019U 91068AE  13285.94458075 -.00000001  00000-0 -71787-4 0  4232
2 26019 082.6498 254.7234 0271812 212.6156 205.0376 12.36086283  1900
0 SL-14 DEB
1 26019U 91068AE  13288.39825793  .00000059  00000-0  34735-3 0  4242
2 26019 082.6502 253.2445 0271817 207.2644 323.7221 12.36086556  2205
0 SL-14 DEB
1 26019U 91068AE  13291.20705043  .00000087  00000-0  53703-3 0  4259
2 26019 082.6507 251.5518 0271778 201.1282 222.6617 12.36086807  2552
0 SL-14 DEB
1 26019U 91068AE  13293.33243436  .00000143  00000-0  92930-3 0  4267
2 26019 082.6507 250.2710 0271757 196.4773 320.4885 12.36087239  2813
0 SL-14 DEB
1 26019U 91068AE  13295.35614446  .00000153  00000-0  99527-3 0  4275
2 26019 082.6506 249.0517 0271759 192.0456 325.8783 12.36087957  3066
